0 OPS 8314 (2)
1 06822U 72079C   13281.03612770 -.00000007  00000-0  29525-4 0  7481
2 06822 095.6458 323.0952 0030839 070.3097 001.2662 12.55472954878295
0 OPS 8314 (2)
1 06822U 72079C   13283.10408054  .00000011  00000-0  14311-3 0  7490
2 06822 095.6455 324.0875 0030767 065.6530 347.6528 12.55472817878551
0 OPS 8314 (2)
1 06822U 72079C   13285.42730448  .00000034  00000-0  28259-3 0  7505
2 06822 095.6450 325.2025 0030673 060.4068 047.7848 12.55472789878844
0 OPS 8314 (2)
1 06822U 72079C   13287.66040005  .00000025  00000-0  22773-3 0  7512
2 06822 095.6442 326.2740 0030576 055.3527 060.5792 12.55473030879128
0 OPS 8314 (2)
1 06822U 72079C   13289.97176053  .00000014  00000-0  16217-3 0  7526
2 06822 095.6436 327.3828 0030466 050.0966 067.1307 12.55473380879412
0 OPS 8314 (2)
1 06822U 72079C   13292.34994424  .00000003  00000-0  92734-4 0  7539
2 06822 095.6434 328.5233 0030364 044.6891 015.7019 12.55473632879718
0 OPS 8314 (2)
1 06822U 72079C   13294.52727181  .00000011  00000-0  13967-3 0  7545
2 06822 095.6434 329.5674 0030273 039.7535 136.4595 12.55473829879984
